H1 CPF  1  HTS 2022  7  2 12  6831 larets           NONE
H2  0304206 5557    27944 2022 07 02  0  0  0 2022 07 07  0  0  0   180 1 1  0 0 0
H5  0.0560 
H9 
10 0 59765  82440.00000  0    -755514.917     669932.071   -6990355.940
10 0 59765  82620.00000  0     171180.122    1659951.238   -6864243.327
10 0 59765  82800.00000  0    1116567.630    2565346.971   -6487983.380
10 0 59765  82980.00000  0    2043786.902    3353345.721   -5875265.144
10 0 59765  83160.00000  0    2915812.148    3996346.486   -5048330.286
10 0 59765  83340.00000  0    3696920.306    4472896.318   -4037211.828
10 0 59765  83520.00000  0    4354156.464    4768431.007   -2878691.992
10 0 59765  83700.00000  0    4858736.661    4875743.248   -1614995.896
10 0 59765  83880.00000  0    5187319.342    4795151.968    -292261.754
10 0 59765  84060.00000  0    5323080.438    4534359.902    1041159.264
10 0 59765  84240.00000  0    5256531.524    4108004.651    2336499.292
10 0 59765  84420.00000  0    4986045.566    3536924.057    3546393.276
10 0 59765  84600.00000  0    4518051.268    2847168.566    4626641.850
10 0 59765  84780.00000  0    3866892.081    2068817.538    5537833.446
10 0 59765  84960.00000  0    3054362.506    1234664.809    6246768.915
10 0 59765  85140.00000  0    2108945.299     378833.468    6727635.776
10 0 59765  85320.00000  0    1064795.149    -464613.634    6962903.364
10 0 59765  85500.00000  0     -39497.461   -1263016.414    6943934.655
10 0 59765  85680.00000  0   -1162325.891   -1986374.262    6671292.780
10 0 59765  85860.00000  0   -2260620.882   -2608470.559    6154734.958
10 0 59765  86040.00000  0   -3291486.658   -3107827.765    5412902.492
10 0 59765  86220.00000  0   -4213885.295   -3468472.083    4472709.738
10 0 59766      0.00000  0   -4990303.232   -3680471.865    3368414.713
10 0 59766    180.00000  0   -5588320.034   -3740222.433    2140402.927
10 0 59766    360.00000  0   -5982015.591   -3650465.875     833716.993
10 0 59766    540.00000  0   -6153137.638   -3420034.470    -503625.969
10 0 59766    720.00000  0   -6091961.225   -3063325.227   -1822454.947
10 0 59766    900.00000  0   -5797785.933   -2599530.468   -3074323.066
10 0 59766   1080.00000  0   -5279042.069   -2051667.740   -4213344.099
10 0 59766   1260.00000  0   -4553011.418   -1445467.212   -5197904.873
10 0 59766   1440.00000  0   -3645184.308    -808176.469   -5992184.336
10 0 59766   1620.00000  0   -2588291.220    -167343.118   -6567422.136
10 0 59766   1800.00000  0   -1421064.794     450364.420   -6902900.144
10 0 59766   1980.00000  0    -186789.891    1020246.726   -6986622.280
10 0 59766   2160.00000  0    1068299.215    1520539.685   -6815691.327
10 0 59766   2340.00000  0    2296729.441    1933228.181   -6396391.222
10 0 59766   2520.00000  0    3451565.585    2244686.863   -5743966.443
10 0 59766   2700.00000  0    4488189.384    2446125.287   -4882098.349
10 0 59766   2880.00000  0    5366026.929    2533826.269   -3842094.723
10 0 59766   3060.00000  0    6050163.226    2509168.435   -2661797.424
10 0 59766   3240.00000  0    6512772.842    2378429.605   -1384237.379
10 0 59766   3420.00000  0    6734299.126    2152376.419     -56070.719
10 0 59766   3600.00000  0    6704313.167    1845654.623    1274145.131
10 0 59766   3780.00000  0    6422003.264    1476010.592    2557758.102
10 0 59766   3960.00000  0    5896274.944    1063384.957    3747836.941
10 0 59766   4140.00000  0    5145446.147     628922.959    4800914.262
10 0 59766   4320.00000  0    4196561.261     193956.902    5678577.144
10 0 59766   4500.00000  0    3084366.126    -220989.316    6348850.606
10 0 59766   4680.00000  0    1849993.063    -597126.015    6787324.692
10 0 59766   4860.00000  0     539422.239    -918215.221    6978004.636
10 0 59766   5040.00000  0    -798233.200   -1171253.277    6913867.420
10 0 59766   5220.00000  0   -2112555.447   -1346992.233    6597109.489
10 0 59766   5400.00000  0   -3353703.889   -1440281.187    6039088.101
10 0 59766   5580.00000  0   -4474301.086   -1450216.992    5259963.009
10 0 59766   5760.00000  0   -5431271.106   -1380103.937    4288026.261
10 0 59766   5940.00000  0   -6187549.354   -1237216.817    3158719.897
10 0 59766   6120.00000  0   -6713586.464   -1032373.452    1913371.433
10 0 59766   6300.00000  0   -6988583.955    -779336.393     597682.753
10 0 59766   6480.00000  0   -7001383.593    -494069.370    -739985.713
10 0 59766   6660.00000  0   -6750951.255    -193885.761   -2050453.258
10 0 59766   6840.00000  0   -6246429.685     103463.938   -3285591.104
10 0 59766   7020.00000  0   -5506763.133     380715.483   -4400145.239
10 0 59766   7200.00000  0   -4559908.460     621978.108   -5353424.643
10 0 59766   7380.00000  0   -3441689.168     813537.049   -6110777.485
10 0 59766   7560.00000  0   -2194361.331     944531.297   -6644807.663
10 0 59766   7740.00000  0    -864966.235    1007479.315   -6936302.768
10 0 59766   7920.00000  0     496461.499     998636.954   -6974860.436
10 0 59766   8100.00000  0    1838761.690     918175.008   -6759213.851
10 0 59766   8280.00000  0    3111547.925     770173.126   -6297262.172
10 0 59766   8460.00000  0    4267079.453     562430.817   -5605791.896
10 0 59766   8640.00000  0    5262042.427     306100.920   -4709902.052
10 0 59766   8820.00000  0    6059190.461      15159.458   -3642143.221
10 0 59766   9000.00000  0    6628779.755    -294270.176   -2441378.396
10 0 59766   9180.00000  0    6949735.721    -604711.686   -1151396.589
10 0 59766   9360.00000  0    7010490.247    -898212.093     180683.393
10 0 59766   9540.00000  0    6809439.626   -1157256.338    1506154.708
10 0 59766   9720.00000  0    6354996.675   -1365675.256    2776538.392
10 0 59766   9900.00000  0    5665228.047   -1509497.221    3945394.142
10 0 59766  10080.00000  0    4767097.087   -1577699.128    4970039.079
10 0 59766  10260.00000  0    3695360.036   -1562819.921    5813104.847
10 0 59766  10440.00000  0    2491174.564   -1461405.666    6443878.873
10 0 59766  10620.00000  0    1200486.216   -1274272.202    6839386.271
10 0 59766  10800.00000  0    -127737.486   -1006574.395    6985189.213
10 0 59766  10980.00000  0   -1443360.815    -667676.846    6875885.742
10 0 59766  11160.00000  0   -2696955.198    -270832.003    6515304.599
10 0 59766  11340.00000  0   -3841643.491     167326.894    5916397.469
10 0 59766  11520.00000  0   -4834863.352     627463.181    5100824.109
10 0 59766  11700.00000  0   -5639989.632    1088362.883    4098224.094
10 0 59766  11880.00000  0   -6227747.745    1527880.891    2945183.968
10 0 59766  12060.00000  0   -6577352.314    1923967.853    1683925.493
10 0 59766  12240.00000  0   -6677317.027    2255729.480     360752.885
10 0 59766  12420.00000  0   -6525882.986    2504464.913    -975688.972
10 0 59766  12600.00000  0   -6131031.757    2654624.297   -2276265.407
10 0 59766  12780.00000  0   -5510083.051    2694635.802   -3493225.196
10 0 59766  12960.00000  0   -4688894.345    2617554.905   -4582007.978
10 0 59766  13140.00000  0   -3700715.555    2421501.175   -5502896.073
10 0 59766  13320.00000  0   -2584771.310    2109868.321   -6222444.275
10 0 59766  13500.00000  0   -1384650.072    1691304.164   -6714648.017
10 0 59766  13680.00000  0    -146569.363    1179463.143   -6961820.141
10 0 59766  13860.00000  0    1082403.432     592547.643   -6955162.923
10 0 59766  14040.00000  0    2256119.940     -47342.224   -6695044.103
10 0 59766  14220.00000  0    3331062.098    -715034.898   -6190967.613
10 0 59766  14400.00000  0    4267938.099   -1383261.229   -5461241.414
10 0 59766  14580.00000  0    5033117.301   -2023746.808   -4532353.382
10 0 59766  14760.00000  0    5599861.259   -2608390.840   -3438060.631
10 0 59766  14940.00000  0    5949298.408   -3110482.335   -2218204.756
10 0 59766  15120.00000  0    6071096.911   -3505900.069    -917282.621
10 0 59766  15300.00000  0    5963797.391   -3774238.903     417178.693
10 0 59766  15480.00000  0    5634784.718   -3899806.068    1736381.408
10 0 59766  15660.00000  0    5099893.055   -3872432.968    2992079.934
10 0 59766  15840.00000  0    4382659.379   -3688053.241    4138379.241
10 0 59766  16020.00000  0    3513276.020   -3349023.595    5133428.514
10 0 59766  16200.00000  0    2527293.098   -2864174.963    5940946.784
10 0 59766  16380.00000  0    1464138.369   -2248590.365    6531520.374
10 0 59766  16560.00000  0     365525.523   -1523127.067    6883635.413
10 0 59766  16740.00000  0    -726183.013    -713703.649    6984423.080
10 0 59766  16920.00000  0   -1769597.769     149623.755    6830106.444
10 0 59766  17100.00000  0   -2725858.365    1033766.647    6426144.546
10 0 59766  17280.00000  0   -3560078.463    1903858.667    5787069.195
10 0 59766  17460.00000  0   -4242635.424    2724621.399    4936013.268
10 0 59766  17640.00000  0   -4750261.579    3461799.222    3903929.398
10 0 59766  17820.00000  0   -5066888.960    4083604.928    2728505.777
10 0 59766  18000.00000  0   -5184205.180    4562114.177    1452808.629
10 0 59766  18180.00000  0   -5101889.084    4874541.808     123689.854
10 0 59766  18360.00000  0   -4827505.472    5004323.234   -1209979.144
10 0 59766  18540.00000  0   -4376060.970    4941944.918   -2499170.343
10 0 59766  18720.00000  0   -3769235.535    4685471.290   -3696570.619
10 0 59766  18900.00000  0   -3034338.566    4240738.017   -4758365.538
10 0 59766  19080.00000  0   -2203053.269    3621212.940   -5645851.267
10 0 59766  19260.00000  0   -1310045.593    2847546.718   -6326820.158
10 0 59766  19440.00000  0    -391500.259    1946834.743   -6776682.851
10 0 59766  19620.00000  0     516348.870     951628.751   -6979291.977
10 0 59766  19800.00000  0    1378634.109    -101254.759   -6927464.446
10 0 59766  19980.00000  0    2163174.876   -1172092.335   -6623200.365
10 0 59766  20160.00000  0    2841658.965   -2219734.590   -6077595.517
10 0 59766  20340.00000  0    3390653.808   -3203163.986   -5310460.341
99
